SL-8 R/B                
1 11574U 79089B   26063.12738899  .00000349  00000+0  11362-3 0  9996
2 11574  74.0673 101.3414 0017130 274.5752  85.3448 14.42346455435300
SL-14 R/B               
1 11672U 80005B   26063.15718557  .00000787  00000+0  77037-4 0  9995
2 11672  82.5155 312.4838 0015695 176.3105 183.8233 14.90922933475661
SL-8 R/B                
1 12139U 81003B   26063.10606217  .00023956  00000+0  61850-3 0  9995
2 12139  82.9389 295.1872 0262670 198.0326 161.1459 15.10715651313830
SL-3 R/B                
1 12465U 81046B   26063.13858190  .00017606  00000+0  41149-3 0  9990
2 12465  81.2307 296.4101 0020016  41.1131 319.1615 15.41824479437571
SL-3 R/B                
1 12904U 81103B   26063.11589467  .00008916  00000+0  39672-3 0  9990
2 12904  81.1572 219.9700 0012487 307.0545  52.9544 15.21292821972387
SL-3 R/B                
1 13068U 82013B   26063.12630929  .00006858  00000+0  29771-3 0  9996
2 13068  81.1769 167.2893 0022350 196.3070 163.7446 15.21947593403505
SL-3 R/B                
1 13154U 82039B   26063.15701587  .00004059  00000+0  24565-3 0  9999
2 13154  81.1580 222.3404 0029867 342.4898  17.5294 15.10042134380804
SL-3 R/B                
1 13403U 82079B   26063.15436492  .00010091  00000+0  40341-3 0  9993
2 13403  81.1474 199.6116 0024824 183.4819 176.6246 15.24699282376854
SL-14 R/B               
1 13553U 82092B   26063.18541867  .00000694  00000+0  75168-4 0  9994
2 13553  82.5702 146.5472 0019350 322.9535  64.5151 14.86660176328111
SL-3 R/B                
1 13819U 83010B   26062.28954010  .00019262  00000+0  39033-3 0  9999
2 13819  81.1059  10.0905 0018467  71.2910 289.0337 15.46076306356957
SL-3 R/B                
1 14208U 83075B   26063.15807729  .00016249  00000+0  43021-3 0  9998
2 14208  97.6133  67.5262 0019750 247.5377 112.3776 15.38256074329306
COSMOS 1536             
1 14699U 84013A   26063.13812529  .00008996  00000+0  37218-3 0  9998
2 14699  82.5437 113.3693 0012780 305.1406  54.8633 15.23740059271772
SL-14 R/B               
1 14820U 84027B   26062.56543012  .00000631  00000+0  69372-4 0  9998
2 14820  82.5381 250.7582 0017893 358.7280   1.3888 14.85968921246726
SL-8 R/B                
1 15483U 85006B   26063.03986294  .00000220  00000+0  81763-4 0  9990
2 15483  74.0434 271.5456 0018680 190.6418 322.8304 14.37778554153212
SL-12 R/B(2)            
1 15772U 85042D   26063.13679167  .00000176  00000+0  10053-3 0  9993
2 15772  71.1064  99.4615 0033494 137.2401 283.5288 14.21980782113607
SL-14 R/B               
1 15945U 85069B   26062.82133637  .00000716  00000+0  78224-4 0  9991
2 15945  82.5272  30.4506 0017958 207.6581 152.3682 14.86424880171965
SL-16 R/B               
1 16182U 85097B   26062.71188084 -.00000009  00000+0  19394-4 0  9999
2 16182  71.0037 153.1385 0009957 266.8264 204.2668 14.16599704 86387
