[{"OBJECT_NAME":"SL-8 R/B","OBJECT_ID":"1979-089B","EPOCH":"2026-03-04T03:03:26.408736","MEAN_MOTION":14.42346455,"ECCENTRICITY":0.001713,"INCLINATION":74.0673,"RA_OF_ASC_NODE":101.3414,"ARG_OF_PERICENTER":274.5752,"MEAN_ANOMALY":85.3448,"EPHEMERIS_TYPE":0,"CLASSIFICATION_TYPE":"U","NORAD_CAT_ID":11574,"ELEMENT_SET_NO":999,"REV_AT_EPOCH":43530,"BSTAR":0.00011362,"MEAN_MOTION_DOT":3.49e-6,"MEAN_MOTION_DDOT":0},{"OBJECT_NAME":"SL-14 R/B","OBJECT_ID":"1980-005B","EPOCH":"2026-03-04T03:46:20.833248","MEAN_MOTION":14.90922933,"ECCENTRICITY":0.0015695,"INCLINATION":82.5155,"RA_OF_ASC_NODE":312.4838,"ARG_OF_PERICENTER":176.3105,"MEAN_ANOMALY":183.8233,"EPHEMERIS_TYPE":0,"CLASSIFICATION_TYPE":"U","NORAD_CAT_ID":11672,"ELEMENT_SET_NO":999,"REV_AT_EPOCH":47566,"BSTAR":7.7037e-5,"MEAN_MOTION_DOT":7.87e-6,"MEAN_MOTION_DDOT":0},{"OBJECT_NAME":"SL-8 R/B","OBJECT_ID":"1981-003B","EPOCH":"2026-03-04T02:32:43.771488","MEAN_MOTION":15.10715651,"ECCENTRICITY":0.026267,"INCLINATION":82.9389,"RA_OF_ASC_NODE":295.1872,"ARG_OF_PERICENTER":198.0326,"MEAN_ANOMALY":161.1459,"EPHEMERIS_TYPE":0,"CLASSIFICATION_TYPE":"U","NORAD_CAT_ID":12139,"ELEMENT_SET_NO":999,"REV_AT_EPOCH":31383,"BSTAR":0.0006185,"MEAN_MOTION_DOT":0.00023956,"MEAN_MOTION_DDOT":0},{"OBJECT_NAME":"SL-3 R/B","OBJECT_ID":"1981-046B","EPOCH":"2026-03-04T03:19:33.476160","MEAN_MOTION":15.41824479,"ECCENTRICITY":0.0020016,"INCLINATION":81.2307,"RA_OF_ASC_NODE":296.4101,"ARG_OF_PERICENTER":41.1131,"MEAN_ANOMALY":319.1615,"EPHEMERIS_TYPE":0,"CLASSIFICATION_TYPE":"U","NORAD_CAT_ID":12465,"ELEMENT_SET_NO":999,"REV_AT_EPOCH":43757,"BSTAR":0.00041149,"MEAN_MOTION_DOT":0.00017606,"MEAN_MOTION_DDOT":0},{"OBJECT_NAME":"SL-3 R/B","OBJECT_ID":"1981-103B","EPOCH":"2026-03-04T02:46:53.299488","MEAN_MOTION":15.21292821,"ECCENTRICITY":0.0012487,"INCLINATION":81.1572,"RA_OF_ASC_NODE":219.97,"ARG_OF_PERICENTER":307.0545,"MEAN_ANOMALY":52.9544,"EPHEMERIS_TYPE":0,"CLASSIFICATION_TYPE":"U","NORAD_CAT_ID":12904,"ELEMENT_SET_NO":999,"REV_AT_EPOCH":97238,"BSTAR":0.00039672,"MEAN_MOTION_DOT":8.916e-5,"MEAN_MOTION_DDOT":0},{"OBJECT_NAME":"SL-3 R/B","OBJECT_ID":"1982-013B","EPOCH":"2026-03-04T03:01:53.122656","MEAN_MOTION":15.21947593,"ECCENTRICITY":0.002235,"INCLINATION":81.1769,"RA_OF_ASC_NODE":167.2893,"ARG_OF_PERICENTER":196.307,"MEAN_ANOMALY":163.7446,"EPHEMERIS_TYPE":0,"CLASSIFICATION_TYPE":"U","NORAD_CAT_ID":13068,"ELEMENT_SET_NO":999,"REV_AT_EPOCH":40350,"BSTAR":0.00029771,"MEAN_MOTION_DOT":6.858e-5,"MEAN_MOTION_DDOT":0},{"OBJECT_NAME":"SL-3 R/B","OBJECT_ID":"1982-039B","EPOCH":"2026-03-04T03:46:06.171168","MEAN_MOTION":15.10042134,"ECCENTRICITY":0.0029867,"INCLINATION":81.158,"RA_OF_ASC_NODE":222.3404,"ARG_OF_PERICENTER":342.4898,"MEAN_ANOMALY":17.5294,"EPHEMERIS_TYPE":0,"CLASSIFICATION_TYPE":"U","NORAD_CAT_ID":13154,"ELEMENT_SET_NO":999,"REV_AT_EPOCH":38080,"BSTAR":0.00024565,"MEAN_MOTION_DOT":4.059e-5,"MEAN_MOTION_DDOT":0},{"OBJECT_NAME":"SL-3 R/B","OBJECT_ID":"1982-079B","EPOCH":"2026-03-04T03:42:17.129088","MEAN_MOTION":15.24699282,"ECCENTRICITY":0.0024824,"INCLINATION":81.1474,"RA_OF_ASC_NODE":199.6116,"ARG_OF_PERICENTER":183.4819,"MEAN_ANOMALY":176.6246,"EPHEMERIS_TYPE":0,"CLASSIFICATION_TYPE":"U","NORAD_CAT_ID":13403,"ELEMENT_SET_NO":999,"REV_AT_EPOCH":37685,"BSTAR":0.00040341,"MEAN_MOTION_DOT":0.00010091,"MEAN_MOTION_DDOT":0},{"OBJECT_NAME":"SL-14 R/B","OBJECT_ID":"1982-092B","EPOCH":"2026-03-04T04:27:00.173088","MEAN_MOTION":14.86660176,"ECCENTRICITY":0.001935,"INCLINATION":82.5702,"RA_OF_ASC_NODE":146.5472,"ARG_OF_PERICENTER":322.9535,"MEAN_ANOMALY":64.5151,"EPHEMERIS_TYPE":0,"CLASSIFICATION_TYPE":"U","NORAD_CAT_ID":13553,"ELEMENT_SET_NO":999,"REV_AT_EPOCH":32811,"BSTAR":7.5168e-5,"MEAN_MOTION_DOT":6.94e-6,"MEAN_MOTION_DDOT":0},{"OBJECT_NAME":"SL-3 R/B","OBJECT_ID":"1983-010B","EPOCH":"2026-03-03T06:56:56.264640","MEAN_MOTION":15.46076306,"ECCENTRICITY":0.00184672,"INCLINATION":81.1059,"RA_OF_ASC_NODE":10.0905,"ARG_OF_PERICENTER":71.291,"MEAN_ANOMALY":289.0337,"EPHEMERIS_TYPE":0,"CLASSIFICATION_TYPE":"U","NORAD_CAT_ID":13819,"ELEMENT_SET_NO":999,"REV_AT_EPOCH":35695,"BSTAR":0.00039033017,"MEAN_MOTION_DOT":0.00019262,"MEAN_MOTION_DDOT":0},{"OBJECT_NAME":"SL-3 R/B","OBJECT_ID":"1983-075B","EPOCH":"2026-03-04T03:47:37.877856","MEAN_MOTION":15.38256074,"ECCENTRICITY":0.001975,"INCLINATION":97.6133,"RA_OF_ASC_NODE":67.5262,"ARG_OF_PERICENTER":247.5377,"MEAN_ANOMALY":112.3776,"EPHEMERIS_TYPE":0,"CLASSIFICATION_TYPE":"U","NORAD_CAT_ID":14208,"ELEMENT_SET_NO":999,"REV_AT_EPOCH":32930,"BSTAR":0.00043021,"MEAN_MOTION_DOT":0.00016249,"MEAN_MOTION_DDOT":0},{"OBJECT_NAME":"COSMOS 1536","OBJECT_ID":"1984-013A","EPOCH":"2026-03-04T03:18:54.025056","MEAN_MOTION":15.23740059,"ECCENTRICITY":0.001278,"INCLINATION":82.5437,"RA_OF_ASC_NODE":113.3693,"ARG_OF_PERICENTER":305.1406,"MEAN_ANOMALY":54.8633,"EPHEMERIS_TYPE":0,"CLASSIFICATION_TYPE":"U","NORAD_CAT_ID":14699,"ELEMENT_SET_NO":999,"REV_AT_EPOCH":27177,"BSTAR":0.00037218,"MEAN_MOTION_DOT":8.996e-5,"MEAN_MOTION_DDOT":0},{"OBJECT_NAME":"SL-14 R/B","OBJECT_ID":"1984-027B","EPOCH":"2026-03-03T13:34:13.162368","MEAN_MOTION":14.85968921,"ECCENTRICITY":0.0017893,"INCLINATION":82.5381,"RA_OF_ASC_NODE":250.7582,"ARG_OF_PERICENTER":358.728,"MEAN_ANOMALY":1.3888,"EPHEMERIS_TYPE":0,"CLASSIFICATION_TYPE":"U","NORAD_CAT_ID":14820,"ELEMENT_SET_NO":999,"REV_AT_EPOCH":24672,"BSTAR":6.9372e-5,"MEAN_MOTION_DOT":6.31e-6,"MEAN_MOTION_DDOT":0},{"OBJECT_NAME":"SL-8 R/B","OBJECT_ID":"1985-006B","EPOCH":"2026-03-04T00:57:24.158016","MEAN_MOTION":14.37778554,"ECCENTRICITY":0.001868,"INCLINATION":74.0434,"RA_OF_ASC_NODE":271.5456,"ARG_OF_PERICENTER":190.6418,"MEAN_ANOMALY":322.8304,"EPHEMERIS_TYPE":0,"CLASSIFICATION_TYPE":"U","NORAD_CAT_ID":15483,"ELEMENT_SET_NO":999,"REV_AT_EPOCH":15321,"BSTAR":8.1763e-5,"MEAN_MOTION_DOT":2.2e-6,"MEAN_MOTION_DDOT":0},{"OBJECT_NAME":"SL-12 R/B(2)","OBJECT_ID":"1985-042D","EPOCH":"2026-03-04T03:16:58.800288","MEAN_MOTION":14.21980782,"ECCENTRICITY":0.0033494,"INCLINATION":71.1064,"RA_OF_ASC_NODE":99.4615,"ARG_OF_PERICENTER":137.2401,"MEAN_ANOMALY":283.5288,"EPHEMERIS_TYPE":0,"CLASSIFICATION_TYPE":"U","NORAD_CAT_ID":15772,"ELEMENT_SET_NO":999,"REV_AT_EPOCH":11360,"BSTAR":0.00010053,"MEAN_MOTION_DOT":1.76e-6,"MEAN_MOTION_DDOT":0},{"OBJECT_NAME":"SL-14 R/B","OBJECT_ID":"1985-069B","EPOCH":"2026-03-03T19:42:43.462368","MEAN_MOTION":14.8642488,"ECCENTRICITY":0.00179588,"INCLINATION":82.5272,"RA_OF_ASC_NODE":30.4506,"ARG_OF_PERICENTER":207.6581,"MEAN_ANOMALY":152.3682,"EPHEMERIS_TYPE":0,"CLASSIFICATION_TYPE":"U","NORAD_CAT_ID":15945,"ELEMENT_SET_NO":999,"REV_AT_EPOCH":17196,"BSTAR":7.8224122e-5,"MEAN_MOTION_DOT":7.16e-6,"MEAN_MOTION_DDOT":0},{"OBJECT_NAME":"SL-16 R/B","OBJECT_ID":"1985-097B","EPOCH":"2026-03-03T17:05:06.504576","MEAN_MOTION":14.16599704,"ECCENTRICITY":0.00099571,"INCLINATION":71.0037,"RA_OF_ASC_NODE":153.1385,"ARG_OF_PERICENTER":266.8264,"MEAN_ANOMALY":204.2668,"EPHEMERIS_TYPE":0,"CLASSIFICATION_TYPE":"U","NORAD_CAT_ID":16182,"ELEMENT_SET_NO":999,"REV_AT_EPOCH":8638,"BSTAR":1.9393807e-5,"MEAN_MOTION_DOT":-9.0e-8,"MEAN_MOTION_DDOT":0}]
